{
  "type": "FeatureCollection",
  "features": [
    {
      "type": "Feature",
      "properties": {
        "norad_id": 40069,
        "name": "METEOR-M 2",
        "group": "weather",
        "lat": 4.214713692366283,
        "lon": 155.28606224047132,
        "alt_km": 819.0428406694555,
        "timestamp": "2025-12-23T11:34:47.828435+00:00",
        "meta_object_name": "METEOR-M 2",
        "meta_object_id": "2014-037A",
        "meta_epoch": "2025-12-23T05:41:16.812960",
        "meta_mean_motion": 14.21390038,
        "meta_eccentricity": 0.0005513,
        "meta_inclination": 98.491,
        "meta_ra_of_asc_node": 334.4192,
        "meta_arg_of_pericenter": 176.548,
        "meta_mean_anomaly": 183.5737,
        "meta_ephemeris_type": 0,
        "meta_classification_type": "U",
        "meta_norad_cat_id": 40069,
        "meta_element_set_no": 999,
        "meta_rev_at_epoch": 59432,
        "meta_bstar": 7.1638e-05,
        "meta_mean_motion_dot": 1.15e-06,
        "meta_mean_motion_ddot": 0,
        "tle_line1": "1 40069U 14037A   25357.23700015  .00000115  00000+0  71638-4 0  9999",
        "tle_line2": "2 40069  98.4910 334.4192 0005513 176.5480 183.5737 14.21390038594321"
      },
      "geometry": {
        "type": "Point",
        "coordinates": [
          155.28606224047132,
          4.214713692366283
        ]
      }
    },
    {
      "type": "Feature",
      "properties": {
        "norad_id": 40267,
        "name": "HIMAWARI-8",
        "group": "weather",
        "lat": 0.02217227233471633,
        "lon": 46.64055923199635,
        "alt_km": 35786.72371299283,
        "timestamp": "2025-12-23T11:34:47.828445+00:00",
        "meta_object_name": "HIMAWARI-8",
        "meta_object_id": "2014-060A",
        "meta_epoch": "2025-12-22T22:23:38.899968",
        "meta_mean_motion": 1.00272243,
        "meta_eccentricity": 8.19e-05,
        "meta_inclination": 0.0459,
        "meta_ra_of_asc_node": 217.6658,
        "meta_arg_of_pericenter": 87.3219,
        "meta_mean_anomaly": 263.3208,
        "meta_ephemeris_type": 0,
        "meta_classification_type": "U",
        "meta_norad_cat_id": 40267,
        "meta_element_set_no": 999,
        "meta_rev_at_epoch": 4099,
        "meta_bstar": 0,
        "meta_mean_motion_dot": -2.54e-06,
        "meta_mean_motion_ddot": 0,
        "tle_line1": "1 40267U 14060A   25356.93308912 -.00000254  00000+0  00000+0 0  9996",
        "tle_line2": "2 40267   0.0459 217.6658 0000819  87.3219 263.3208  1.00272243 40999"
      },
      "geometry": {
        "type": "Point",
        "coordinates": [
          46.64055923199635,
          0.02217227233471633
        ]
      }
    },
    {
      "type": "Feature",
      "properties": {
        "norad_id": 40367,
        "name": "FENGYUN 2G",
        "group": "weather",
        "lat": -4.8803069322806625,
        "lon": 5.235845377670821,
        "alt_km": 35789.37979692002,
        "timestamp": "2025-12-23T11:34:47.828458+00:00",
        "meta_object_name": "FENGYUN 2G",
        "meta_object_id": "2014-090A",
        "meta_epoch": "2025-12-23T01:37:15.049920",
        "meta_mean_motion": 1.00260115,
        "meta_eccentricity": 0.0002648,
        "meta_inclination": 5.1926,
        "meta_ra_of_asc_node": 74.9794,
        "meta_arg_of_pericenter": 203.6037,
        "meta_mean_anomaly": 296.7693,
        "meta_ephemeris_type": 0,
        "meta_classification_type": "U",
        "meta_norad_cat_id": 40367,
        "meta_element_set_no": 999,
        "meta_rev_at_epoch": 4023,
        "meta_bstar": 0,
        "meta_mean_motion_dot": -2.79e-06,
        "meta_mean_motion_ddot": 0,
        "tle_line1": "1 40367U 14090A   25357.06753530 -.00000279  00000+0  00000+0 0  9992",
        "tle_line2": "2 40367   5.1926  74.9794 0002648 203.6037 296.7693  1.00260115 40233"
      },
      "geometry": {
        "type": "Point",
        "coordinates": [
          5.235845377670821,
          -4.8803069322806625
        ]
      }
    },
    {
      "type": "Feature",
      "properties": {
        "norad_id": 40732,
        "name": "METEOSAT-11 (MSG-4)",
        "group": "weather",
        "lat": -1.1107423190964087,
        "lon": -84.86253025708233,
        "alt_km": 35785.18594205537,
        "timestamp": "2025-12-23T11:34:47.828481+00:00",
        "meta_object_name": "METEOSAT-11 (MSG-4)",
        "meta_object_id": "2015-034A",
        "meta_epoch": "2025-12-23T02:54:15.174144",
        "meta_mean_motion": 1.00270743,
        "meta_eccentricity": 7.63e-05,
        "meta_inclination": 2.7623,
        "meta_ra_of_asc_node": 71.9738,
        "meta_arg_of_pericenter": 137.0333,
        "meta_mean_anomaly": 295.6591,
        "meta_ephemeris_type": 0,
        "meta_classification_type": "U",
        "meta_norad_cat_id": 40732,
        "meta_element_set_no": 999,
        "meta_rev_at_epoch": 545,
        "meta_bstar": 0,
        "meta_mean_motion_dot": 8.1e-07,
        "meta_mean_motion_ddot": 0,
        "tle_line1": "1 40732U 15034A   25357.12100896  .00000081  00000+0  00000+0 0  9995",
        "tle_line2": "2 40732   2.7623  71.9738 0000763 137.0333 295.6591  1.00270743  5454"
      },
      "geometry": {
        "type": "Point",
        "coordinates": [
          -84.86253025708233,
          -1.1107423190964087
        ]
      }
    },
    {
      "type": "Feature",
      "properties": {
        "norad_id": 41105,
        "name": "ELEKTRO-L 2",
        "group": "weather",
        "lat": 0.11625313055331599,
        "lon": -108.51216021610104,
        "alt_km": 35773.01607222468,
        "timestamp": "2025-12-23T11:34:47.828492+00:00",
        "meta_object_name": "ELEKTRO-L 2",
        "meta_object_id": "2015-074A",
        "meta_epoch": "2025-12-23T01:04:44.322816",
        "meta_mean_motion": 1.00272278,
        "meta_eccentricity": 0.000352,
        "meta_inclination": 6.25,
        "meta_ra_of_asc_node": 72.7058,
        "meta_arg_of_pericenter": 208.6905,
        "meta_mean_anomaly": 172.1579,
        "meta_ephemeris_type": 0,
        "meta_classification_type": "U",
        "meta_norad_cat_id": 41105,
        "meta_element_set_no": 999,
        "meta_rev_at_epoch": 3674,
        "meta_bstar": 0,
        "meta_mean_motion_dot": -9.9e-07,
        "meta_mean_motion_ddot": 0,
        "tle_line1": "1 41105U 15074A   25357.04495744 -.00000099  00000+0  00000+0 0  9994",
        "tle_line2": "2 41105   6.2500  72.7058 0003520 208.6905 172.1579  1.00272278 36746"
      },
      "geometry": {
        "type": "Point",
        "coordinates": [
          -108.51216021610104,
          0.11625313055331599
        ]
      }
    },
    {
      "type": "Feature",
      "properties": {
        "norad_id": 41752,
        "name": "INSAT-3DR",
        "group": "weather",
        "lat": -0.12212586735059743,
        "lon": -19.893917156301004,
        "alt_km": 35763.86275016919,
        "timestamp": "2025-12-23T11:34:47.828503+00:00",
        "meta_object_name": "INSAT-3DR",
        "meta_object_id": "2016-054A",
        "meta_epoch": "2025-12-22T23:47:15.892224",
        "meta_mean_motion": 1.00271543,
        "meta_eccentricity": 0.0014202,
        "meta_inclination": 0.1161,
        "meta_ra_of_asc_node": 86.2406,
        "meta_arg_of_pericenter": 185.5109,
        "meta_mean_anomaly": 250.8422,
        "meta_ephemeris_type": 0,
        "meta_classification_type": "U",
        "meta_norad_cat_id": 41752,
        "meta_element_set_no": 999,
        "meta_rev_at_epoch": 3405,
        "meta_bstar": 0,
        "meta_mean_motion_dot": -5.6e-07,
        "meta_mean_motion_ddot": 0,
        "tle_line1": "1 41752U 16054A   25356.99115616 -.00000056  00000+0  00000+0 0  9994",
        "tle_line2": "2 41752   0.1161  86.2406 0014202 185.5109 250.8422  1.00271543 34052"
      },
      "geometry": {
        "type": "Point",
        "coordinates": [
          -19.893917156301004,
          -0.12212586735059743
        ]
      }
    },
    {
      "type": "Feature",
      "properties": {
        "norad_id": 41836,
        "name": "HIMAWARI-9",
        "group": "weather",
        "lat": 0.016744978740500342,
        "lon": 46.757926495970835,
        "alt_km": 35784.55849543234,
        "timestamp": "2025-12-23T11:34:47.828514+00:00",
        "meta_object_name": "HIMAWARI-9",
        "meta_object_id": "2016-064A",
        "meta_epoch": "2025-12-22T18:58:13.571040",
        "meta_mean_motion": 1.00272669,
        "meta_eccentricity": 0.000148,
        "meta_inclination": 0.0164,
        "meta_ra_of_asc_node": 29.9097,
        "meta_arg_of_pericenter": 299.5848,
        "meta_mean_anomaly": 187.4267,
        "meta_ephemeris_type": 0,
        "meta_classification_type": "U",
        "meta_norad_cat_id": 41836,
        "meta_element_set_no": 999,
        "meta_rev_at_epoch": 3344,
        "meta_bstar": 0,
        "meta_mean_motion_dot": 0,
        "meta_mean_motion_ddot": 0,
        "tle_line1": "1 41836U 16064A   25356.79043485  .00000000  00000+0  00000+0 0  9998",
        "tle_line2": "2 41836   0.0164  29.9097 0001480 299.5848 187.4267  1.00272669 33441"
      },
      "geometry": {
        "type": "Point",
        "coordinates": [
          46.757926495970835,
          0.016744978740500342
        ]
      }
    }
  ]
}